ONEWEB-0456             
1 51646U 22012AA  24113.77736614 -.00000563  00000+0 -16504-2 0  9994
2 51646  87.8983 192.3416 0002227 112.3079 247.8284 13.10370805106481
ONEWEB-0457             
1 51647U 22012AB  24113.75415964  .00000491  00000+0  13697-2 0  9993
2 51647  87.8991 192.3633 0002132  89.8176 270.3196 13.10374179106484
ONEWEB-0458             
1 51648U 22012AC  24114.23384964 -.00000328  00000+0 -97590-3 0  9999
2 51648  87.8992 192.2840 0001813  98.4205 261.7128 13.10370535107807
ONEWEB-0461             
1 51649U 22012AD  24114.20075438 -.00000409  00000+0 -10855-2 0  9998
2 51649  87.9201 162.0784 0001832  71.9173 288.2158 13.17651762111808
ONEWEB-0463             
1 51650U 22012AE  24113.65180742  .00000052  00000+0  99704-4 0  9997
2 51650  87.9204 162.2315 0002101  93.0694 267.0678 13.17649307110227
ONEWEB-0464             
1 51651U 22012AF  24114.15419472 -.00000226  00000+0 -68449-3 0  9995
2 51651  87.8992 192.2888 0001990 114.1560 245.9775 13.10369453107819
ONEWEB-0468             
1 51652U 22012AG  24113.77902090 -.00000647  00000+0 -18906-2 0  9995
2 51652  87.8993 192.3552 0002033 106.4278 253.7073 13.10370698106448
ONEWEB-0473             
1 51653U 22012AH  24114.14589924  .00000191  00000+0  51107-3 0  9998
2 51653  87.8990 192.2861 0001883  99.8101 260.3239 13.10369671107796
